IXPE                    
1 49954U 21121A   24081.91668981  .00007838  00000+0  59451-3 0  9993
2 49954   0.2300 320.6607 0009888  65.2405 132.3784 14.96928516  5494
